{
  "type": "FeatureCollection",
  "features": [
    {
      "type": "Feature",
      "properties": {
        "norad_id": 34010,
        "name": "COSMOS 2251 DEB",
        "group": "cosmos-2251-debris",
        "lat": 54.28906198761778,
        "lon": -66.26603848860859,
        "alt_km": 498.0934327190962,
        "timestamp": "2025-12-18T23:35:49.456518+00:00",
        "meta_object_name": "COSMOS 2251 DEB",
        "meta_object_id": "1993-036GV",
        "meta_epoch": "2025-12-18T12:17:05.371008",
        "meta_mean_motion": 15.1964801,
        "meta_eccentricity": 0.00045445,
        "meta_inclination": 73.9996,
        "meta_ra_of_asc_node": 271.1965,
        "meta_arg_of_pericenter": 61.7712,
        "meta_mean_anomaly": 298.3943,
        "meta_ephemeris_type": 0,
        "meta_classification_type": "U",
        "meta_norad_cat_id": 34010,
        "meta_element_set_no": 999,
        "meta_rev_at_epoch": 89373,
        "meta_bstar": 0.0035306411,
        "meta_mean_motion_dot": 0.00076081,
        "meta_mean_motion_ddot": 0,
        "tle_line1": "1 34010U 93036GV  25352.51186772  .00076081  00000+0  35306-2 0  9993",
        "tle_line2": "2 34010  73.9996 271.1965 0004544  61.7712 298.3943 15.19648010893738"
      },
      "geometry": {
        "type": "Point",
        "coordinates": [
          -66.26603848860859,
          54.28906198761778
        ]
      }
    },
    {
      "type": "Feature",
      "properties": {
        "norad_id": 34011,
        "name": "COSMOS 2251 DEB",
        "group": "cosmos-2251-debris",
        "lat": -65.77776862685343,
        "lon": 178.14649132044786,
        "alt_km": 781.3342006875182,
        "timestamp": "2025-12-18T23:35:49.456529+00:00",
        "meta_object_name": "COSMOS 2251 DEB",
        "meta_object_id": "1993-036GW",
        "meta_epoch": "2025-12-17T23:07:14.633184",
        "meta_mean_motion": 14.4179436,
        "meta_eccentricity": 0.00359281,
        "meta_inclination": 74.0143,
        "meta_ra_of_asc_node": 320.4556,
        "meta_arg_of_pericenter": 42.4691,
        "meta_mean_anomaly": 317.9234,
        "meta_ephemeris_type": 0,
        "meta_classification_type": "U",
        "meta_norad_cat_id": 34011,
        "meta_element_set_no": 999,
        "meta_rev_at_epoch": 87991,
        "meta_bstar": 0.00059386852,
        "meta_mean_motion_dot": 1.929e-05,
        "meta_mean_motion_ddot": 0,
        "tle_line1": "1 34011U 93036GW  25351.96336381  .00001929  00000+0  59387-3 0  9990",
        "tle_line2": "2 34011  74.0143 320.4556 0035928  42.4691 317.9234 14.41794360879910"
      },
      "geometry": {
        "type": "Point",
        "coordinates": [
          178.14649132044786,
          -65.77776862685343
        ]
      }
    },
    {
      "type": "Feature",
      "properties": {
        "norad_id": 34014,
        "name": "COSMOS 2251 DEB",
        "group": "cosmos-2251-debris",
        "lat": 5.496136319535376,
        "lon": 86.96411427054373,
        "alt_km": 668.703288001685,
        "timestamp": "2025-12-18T23:35:49.456539+00:00",
        "meta_object_name": "COSMOS 2251 DEB",
        "meta_object_id": "1993-036GZ",
        "meta_epoch": "2025-12-18T12:11:24.263808",
        "meta_mean_motion": 14.73207158,
        "meta_eccentricity": 0.00372784,
        "meta_inclination": 74.0178,
        "meta_ra_of_asc_node": 269.4712,
        "meta_arg_of_pericenter": 47.5254,
        "meta_mean_anomaly": 126.6153,
        "meta_ephemeris_type": 0,
        "meta_classification_type": "U",
        "meta_norad_cat_id": 34014,
        "meta_element_set_no": 999,
        "meta_rev_at_epoch": 89388,
        "meta_bstar": 0.00076347317,
        "meta_mean_motion_dot": 4.952e-05,
        "meta_mean_motion_ddot": 0,
        "tle_line1": "1 34014U 93036GZ  25352.50791972  .00004952  00000+0  76347-3 0  9999",
        "tle_line2": "2 34014  74.0178 269.4712 0037278  47.5254 126.6153 14.73207158893884"
      },
      "geometry": {
        "type": "Point",
        "coordinates": [
          86.96411427054373,
          5.496136319535376
        ]
      }
    },
    {
      "type": "Feature",
      "properties": {
        "norad_id": 34015,
        "name": "COSMOS 2251 DEB",
        "group": "cosmos-2251-debris",
        "lat": 0.8244106431381937,
        "lon": 147.73232136437377,
        "alt_km": 701.2986339009822,
        "timestamp": "2025-12-18T23:35:49.456549+00:00",
        "meta_object_name": "COSMOS 2251 DEB",
        "meta_object_id": "1993-036HA",
        "meta_epoch": "2025-12-18T14:05:22.675200",
        "meta_mean_motion": 14.60327008,
        "meta_eccentricity": 0.00209692,
        "meta_inclination": 74.0229,
        "meta_ra_of_asc_node": 148.2527,
        "meta_arg_of_pericenter": 245.0142,
        "meta_mean_anomaly": 194.002,
        "meta_ephemeris_type": 0,
        "meta_classification_type": "U",
        "meta_norad_cat_id": 34015,
        "meta_element_set_no": 999,
        "meta_rev_at_epoch": 88616,
        "meta_bstar": 0.0011918405,
        "meta_mean_motion_dot": 5.753e-05,
        "meta_mean_motion_ddot": 0,
        "tle_line1": "1 34015U 93036HA  25352.58706800  .00005753  00000+0  11918-2 0  9996",
        "tle_line2": "2 34015  74.0229 148.2527 0020969 245.0142 194.0020 14.60327008886168"
      },
      "geometry": {
        "type": "Point",
        "coordinates": [
          147.73232136437377,
          0.8244106431381937
        ]
      }
    },
    {
      "type": "Feature",
      "properties": {
        "norad_id": 34018,
        "name": "COSMOS 2251 DEB",
        "group": "cosmos-2251-debris",
        "lat": 12.80725354018519,
        "lon": -102.2538855157927,
        "alt_km": 834.4289559298504,
        "timestamp": "2025-12-18T23:35:49.456560+00:00",
        "meta_object_name": "COSMOS 2251 DEB",
        "meta_object_id": "1993-036HD",
        "meta_epoch": "2025-12-18T12:28:21.820800",
        "meta_mean_motion": 13.81078586,
        "meta_eccentricity": 0.02634097,
        "meta_inclination": 73.8781,
        "meta_ra_of_asc_node": 82.3012,
        "meta_arg_of_pericenter": 117.0842,
        "meta_mean_anomaly": 263.5035,
        "meta_ephemeris_type": 0,
        "meta_classification_type": "U",
        "meta_norad_cat_id": 34018,
        "meta_element_set_no": 999,
        "meta_rev_at_epoch": 84737,
        "meta_bstar": 0.00030216785,
        "meta_mean_motion_dot": 3.94e-06,
        "meta_mean_motion_ddot": 0,
        "tle_line1": "1 34018U 93036HD  25352.51969700  .00000394  00000+0  30217-3 0  9992",
        "tle_line2": "2 34018  73.8781  82.3012 0263409 117.0842 263.5035 13.81078586847375"
      },
      "geometry": {
        "type": "Point",
        "coordinates": [
          -102.2538855157927,
          12.80725354018519
        ]
      }
    },
    {
      "type": "Feature",
      "properties": {
        "norad_id": 34019,
        "name": "COSMOS 2251 DEB",
        "group": "cosmos-2251-debris",
        "lat": 35.03516491179918,
        "lon": 50.89934632884559,
        "alt_km": 820.4967305141563,
        "timestamp": "2025-12-18T23:35:49.456570+00:00",
        "meta_object_name": "COSMOS 2251 DEB",
        "meta_object_id": "1993-036HE",
        "meta_epoch": "2025-12-18T14:05:34.771200",
        "meta_mean_motion": 14.33963758,
        "meta_eccentricity": 0.00625144,
        "meta_inclination": 73.9546,
        "meta_ra_of_asc_node": 39.9865,
        "meta_arg_of_pericenter": 220.3775,
        "meta_mean_anomaly": 292.8954,
        "meta_ephemeris_type": 0,
        "meta_classification_type": "U",
        "meta_norad_cat_id": 34019,
        "meta_element_set_no": 999,
        "meta_rev_at_epoch": 87604,
        "meta_bstar": 0.00060238319,
        "meta_mean_motion_dot": 1.691e-05,
        "meta_mean_motion_ddot": 0,
        "tle_line1": "1 34019U 93036HE  25352.58720800  .00001691  00000+0  60238-3 0  9993",
        "tle_line2": "2 34019  73.9546  39.9865 0062514 220.3775 292.8954 14.33963758876040"
      },
      "geometry": {
        "type": "Point",
        "coordinates": [
          50.89934632884559,
          35.03516491179918
        ]
      }
    },
    {
      "type": "Feature",
      "properties": {
        "norad_id": 34021,
        "name": "COSMOS 2251 DEB",
        "group": "cosmos-2251-debris",
        "lat": 42.683188149233615,
        "lon": -77.20113070929817,
        "alt_km": 730.6842469917483,
        "timestamp": "2025-12-18T23:35:49.456581+00:00",
        "meta_object_name": "COSMOS 2251 DEB",
        "meta_object_id": "1993-036HG",
        "meta_epoch": "2025-12-18T09:59:12.329952",
        "meta_mean_motion": 14.49967996,
        "meta_eccentricity": 0.00209503,
        "meta_inclination": 74.0359,
        "meta_ra_of_asc_node": 119.1704,
        "meta_arg_of_pericenter": 262.6354,
        "meta_mean_anomaly": 153.6647,
        "meta_ephemeris_type": 0,
        "meta_classification_type": "U",
        "meta_norad_cat_id": 34021,
        "meta_element_set_no": 999,
        "meta_rev_at_epoch": 88712,
        "meta_bstar": 0.00037948616,
        "meta_mean_motion_dot": 1.445e-05,
        "meta_mean_motion_ddot": 0,
        "tle_line1": "1 34021U 93036HG  25352.41611493  .00001445  00000+0  37949-3 0  9995",
        "tle_line2": "2 34021  74.0359 119.1704 0020950 262.6354 153.6647 14.49967996887129"
      },
      "geometry": {
        "type": "Point",
        "coordinates": [
          -77.20113070929817,
          42.683188149233615
        ]
      }
    }
  ]
}